{
  "type": "FeatureCollection",
  "features": [
    {
      "type": "Feature",
      "properties": {
        "norad_id": 34497,
        "name": "IRIDIUM 33 DEB",
        "group": "iridium-33-debris",
        "lat": -13.05792791006558,
        "lon": -132.81544656953483,
        "alt_km": 814.1528979669574,
        "timestamp": "2025-12-26T23:26:42.509303+00:00",
        "meta_object_name": "IRIDIUM 33 DEB",
        "meta_object_id": "1997-051GN",
        "meta_epoch": "2025-12-22T21:33:03.136608",
        "meta_mean_motion": 14.27482363,
        "meta_eccentricity": 0.00780484,
        "meta_inclination": 86.2769,
        "meta_ra_of_asc_node": 48.0617,
        "meta_arg_of_pericenter": 306.2683,
        "meta_mean_anomaly": 179.2919,
        "meta_ephemeris_type": 0,
        "meta_classification_type": "U",
        "meta_norad_cat_id": 34497,
        "meta_element_set_no": 999,
        "meta_rev_at_epoch": 87028,
        "meta_bstar": 0.00056228088,
        "meta_mean_motion_dot": 1.443e-05,
        "meta_mean_motion_ddot": 0,
        "tle_line1": "1 34497U 97051GN  25356.89795297  .00001443  00000+0  56228-3 0  9993",
        "tle_line2": "2 34497  86.2769  48.0617 0078048 306.2683 179.2919 14.27482363870281"
      },
      "geometry": {
        "type": "Point",
        "coordinates": [
          -132.81544656953483,
          -13.05792791006558
        ]
      }
    },
    {
      "type": "Feature",
      "properties": {
        "norad_id": 34508,
        "name": "IRIDIUM 33 DEB",
        "group": "iridium-33-debris",
        "lat": -15.924457901940263,
        "lon": -82.35503568074984,
        "alt_km": 750.5321209398498,
        "timestamp": "2025-12-26T23:26:42.509312+00:00",
        "meta_object_name": "IRIDIUM 33 DEB",
        "meta_object_id": "1997-051GZ",
        "meta_epoch": "2025-12-26T07:31:07.370400",
        "meta_mean_motion": 14.38527608,
        "meta_eccentricity": 0.0066681,
        "meta_inclination": 86.3698,
        "meta_ra_of_asc_node": 96.8885,
        "meta_arg_of_pericenter": 129.474,
        "meta_mean_anomaly": 231.2383,
        "meta_ephemeris_type": 0,
        "meta_classification_type": "U",
        "meta_norad_cat_id": 34508,
        "meta_element_set_no": 999,
        "meta_rev_at_epoch": 87504,
        "meta_bstar": 0.0012081,
        "meta_mean_motion_dot": 3.808e-05,
        "meta_mean_motion_ddot": 0,
        "tle_line1": "1 34508U 97051GZ  25360.31327975  .00003808  00000+0  12081-2 0  9997",
        "tle_line2": "2 34508  86.3698  96.8885 0066681 129.4740 231.2383 14.38527608875040"
      },
      "geometry": {
        "type": "Point",
        "coordinates": [
          -82.35503568074984,
          -15.924457901940263
        ]
      }
    },
    {
      "type": "Feature",
      "properties": {
        "norad_id": 34521,
        "name": "IRIDIUM 33 DEB",
        "group": "iridium-33-debris",
        "lat": -29.551328448825796,
        "lon": -153.66423323172577,
        "alt_km": 686.4002426612597,
        "timestamp": "2025-12-26T23:26:42.509321+00:00",
        "meta_object_name": "IRIDIUM 33 DEB",
        "meta_object_id": "1997-051HN",
        "meta_epoch": "2025-12-26T12:38:41.834976",
        "meta_mean_motion": 14.63480775,
        "meta_eccentricity": 0.0003338,
        "meta_inclination": 86.379,
        "meta_ra_of_asc_node": 24.4764,
        "meta_arg_of_pericenter": 162.7334,
        "meta_mean_anomaly": 197.3992,
        "meta_ephemeris_type": 0,
        "meta_classification_type": "U",
        "meta_norad_cat_id": 34521,
        "meta_element_set_no": 999,
        "meta_rev_at_epoch": 88674,
        "meta_bstar": 0.00091376,
        "meta_mean_motion_dot": 4.754e-05,
        "meta_mean_motion_ddot": 0,
        "tle_line1": "1 34521U 97051HN  25360.52687309  .00004754  00000+0  91376-3 0  9991",
        "tle_line2": "2 34521  86.3790  24.4764 0003338 162.7334 197.3992 14.63480775886748"
      },
      "geometry": {
        "type": "Point",
        "coordinates": [
          -153.66423323172577,
          -29.551328448825796
        ]
      }
    },
    {
      "type": "Feature",
      "properties": {
        "norad_id": 34525,
        "name": "IRIDIUM 33 DEB",
        "group": "iridium-33-debris",
        "lat": 59.00762745087851,
        "lon": 46.82981360069737,
        "alt_km": 738.8099344491538,
        "timestamp": "2025-12-26T23:26:42.509330+00:00",
        "meta_object_name": "IRIDIUM 33 DEB",
        "meta_object_id": "1997-051HS",
        "meta_epoch": "2025-12-26T13:53:42.987264",
        "meta_mean_motion": 14.42937761,
        "meta_eccentricity": 0.0006147,
        "meta_inclination": 86.3717,
        "meta_ra_of_asc_node": 40.936,
        "meta_arg_of_pericenter": 62.9394,
        "meta_mean_anomaly": 90.6558,
        "meta_ephemeris_type": 0,
        "meta_classification_type": "U",
        "meta_norad_cat_id": 34525,
        "meta_element_set_no": 999,
        "meta_rev_at_epoch": 88287,
        "meta_bstar": 0.00035937,
        "meta_mean_motion_dot": 1.221e-05,
        "meta_mean_motion_ddot": 0,
        "tle_line1": "1 34525U 97051HS  25360.57896976  .00001221  00000+0  35937-3 0  9999",
        "tle_line2": "2 34525  86.3717  40.9360 0006147  62.9394  90.6558 14.42937761882876"
      },
      "geometry": {
        "type": "Point",
        "coordinates": [
          46.82981360069737,
          59.00762745087851
        ]
      }
    },
    {
      "type": "Feature",
      "properties": {
        "norad_id": 34529,
        "name": "IRIDIUM 33 DEB",
        "group": "iridium-33-debris",
        "lat": -16.458232819765122,
        "lon": -149.58177207809115,
        "alt_km": 759.0691418567867,
        "timestamp": "2025-12-26T23:26:42.509339+00:00",
        "meta_object_name": "IRIDIUM 33 DEB",
        "meta_object_id": "1997-051HW",
        "meta_epoch": "2025-12-26T14:12:06.788736",
        "meta_mean_motion": 14.40627159,
        "meta_eccentricity": 0.0006309,
        "meta_inclination": 86.3628,
        "meta_ra_of_asc_node": 29.5057,
        "meta_arg_of_pericenter": 138.1705,
        "meta_mean_anomaly": 221.9977,
        "meta_ephemeris_type": 0,
        "meta_classification_type": "U",
        "meta_norad_cat_id": 34529,
        "meta_element_set_no": 999,
        "meta_rev_at_epoch": 88341,
        "meta_bstar": 0.00013424,
        "meta_mean_motion_dot": 4.48e-06,
        "meta_mean_motion_ddot": 0,
        "tle_line1": "1 34529U 97051HW  25360.59174524  .00000448  00000+0  13424-3 0  9990",
        "tle_line2": "2 34529  86.3628  29.5057 0006309 138.1705 221.9977 14.40627159883419"
      },
      "geometry": {
        "type": "Point",
        "coordinates": [
          -149.58177207809115,
          -16.458232819765122
        ]
      }
    },
    {
      "type": "Feature",
      "properties": {
        "norad_id": 34538,
        "name": "IRIDIUM 33 DEB",
        "group": "iridium-33-debris",
        "lat": 40.803096795840496,
        "lon": 176.09613924340704,
        "alt_km": 763.5625693191096,
        "timestamp": "2025-12-26T23:26:42.509347+00:00",
        "meta_object_name": "IRIDIUM 33 DEB",
        "meta_object_id": "1997-051JF",
        "meta_epoch": "2025-12-26T18:05:01.336416",
        "meta_mean_motion": 14.42730445,
        "meta_eccentricity": 0.0031825,
        "meta_inclination": 86.2767,
        "meta_ra_of_asc_node": 359.4165,
        "meta_arg_of_pericenter": 279.2395,
        "meta_mean_anomaly": 140.4767,
        "meta_ephemeris_type": 0,
        "meta_classification_type": "U",
        "meta_norad_cat_id": 34538,
        "meta_element_set_no": 999,
        "meta_rev_at_epoch": 87958,
        "meta_bstar": 0.00099527,
        "meta_mean_motion_dot": 3.352e-05,
        "meta_mean_motion_ddot": 0,
        "tle_line1": "1 34538U 97051JF  25360.75348769  .00003352  00000+0  99527-3 0  9997",
        "tle_line2": "2 34538  86.2767 359.4165 0031825 279.2395 140.4767 14.42730445879580"
      },
      "geometry": {
        "type": "Point",
        "coordinates": [
          176.09613924340704,
          40.803096795840496
        ]
      }
    },
    {
      "type": "Feature",
      "properties": {
        "norad_id": 34540,
        "name": "IRIDIUM 33 DEB",
        "group": "iridium-33-debris",
        "lat": 74.07280729993137,
        "lon": -45.83591470974751,
        "alt_km": 625.9401190540793,
        "timestamp": "2025-12-26T23:26:42.509356+00:00",
        "meta_object_name": "IRIDIUM 33 DEB",
        "meta_object_id": "1997-051JH",
        "meta_epoch": "2025-12-26T07:30:51.838272",
        "meta_mean_motion": 14.75597732,
        "meta_eccentricity": 0.001844,
        "meta_inclination": 86.311,
        "meta_ra_of_asc_node": 301.401,
        "meta_arg_of_pericenter": 114.305,
        "meta_mean_anomaly": 36.5387,
        "meta_ephemeris_type": 0,
        "meta_classification_type": "U",
        "meta_norad_cat_id": 34540,
        "meta_element_set_no": 999,
        "meta_rev_at_epoch": 89221,
        "meta_bstar": 0.0015802,
        "meta_mean_motion_dot": 0.00010835,
        "meta_mean_motion_ddot": 0,
        "tle_line1": "1 34540U 97051JH  25360.31309998  .00010835  00000+0  15802-2 0  9990",
        "tle_line2": "2 34540  86.3110 301.4010 0018440 114.3050  36.5387 14.75597732892211"
      },
      "geometry": {
        "type": "Point",
        "coordinates": [
          -45.83591470974751,
          74.07280729993137
        ]
      }
    }
  ]
}